ONEWEB-0210             
1 48787U 21045W   25193.63215322 -.00000057  00000+0 -18512-3 0  9993
2 48787  87.9068 326.8710 0002561 105.7800 254.3613 13.15549954199678
ONEWEB-0214             
1 48788U 21045X   25193.64150715 -.00000063  00000+0 -20210-3 0  9994
2 48788  87.9070 326.8583 0002258 107.3403 252.7975 13.15546658199648
ONEWEB-0221             
1 48789U 21045Y   25193.41982128  .00000088  00000+0  19972-3 0  9999
2 48789  87.9073 326.9312 0002160  98.4205 261.7170 13.15540992199704
ONEWEB-0213             
1 48790U 21045Z   25193.63689870 -.00000128  00000+0 -37450-3 0  9991
2 48790  87.9073 326.8949 0002657  99.2669 260.8762 13.15549666199798
ONEWEB-0212             
1 48791U 21045AA  25193.61393969  .00000024  00000+0  29113-4 0  9992
2 48791  87.9066 326.8827 0001897  95.9535 264.1811 13.15549041199784
ONEWEB-0227             
1 48792U 21045AB  25193.61312774  .00000027  00000+0  38069-4 0  9991
2 48792  87.9074 326.9017 0002037  96.4849 263.6513 13.15550481199735
ONEWEB-0226             
1 48793U 21045AC  25193.60680195  .00000094  00000+0  21433-3 0  9996
2 48793  87.9073 326.9069 0002258 102.4838 257.6545 13.15548774199700
ONEWEB-0224             
1 48794U 21045AD  25193.41822984  .00000040  00000+0  71932-4 0  9991
2 48794  87.9072 326.9818 0002352  74.7617 285.3773 13.15549370199606
